CCSDS_OMM_VERS = 2.0
CREATION_DATE  = 
ORIGINATOR     = 

OBJECT_NAME    = UNKNOWN
OBJECT_ID      = 
CENTER_NAME    = EARTH
REF_FRAME      = TEME
TIME_SYSTEM    = UTC
MEAN_ELEMENT_THEORY = SGP/SGP4

EPOCH          = 2025-10-27T14:57:25.599744
MEAN_MOTION    = 13.65910476
ECCENTRICITY   = .0104663
INCLINATION    = 90.3475
RA_OF_ASC_NODE = 67.7364
ARG_OF_PERICENTER = 34.9602
MEAN_ANOMALY   = 325.8371

EPHEMERIS_TYPE = 0
CLASSIFICATION_TYPE = U
NORAD_CAT_ID   = 87159
ELEMENT_SET_NO = 999
REV_AT_EPOCH   = 55039
BSTAR          = .15332E-2
MEAN_MOTION_DOT = .1315E-4
MEAN_MOTION_DDOT = 0

CCSDS_OMM_VERS = 2.0
CREATION_DATE  = 
ORIGINATOR     = 

OBJECT_NAME    = UNKNOWN
OBJECT_ID      = 
CENTER_NAME    = EARTH
REF_FRAME      = TEME
TIME_SYSTEM    = UTC
MEAN_ELEMENT_THEORY = SGP/SGP4

EPOCH          = 2025-11-01T11:57:09.572544
MEAN_MOTION    = 13.63588240
ECCENTRICITY   = .0642247
INCLINATION    = 65.6024
RA_OF_ASC_NODE = 337.9908
ARG_OF_PERICENTER = 83.1741
MEAN_ANOMALY   = 284.1912

EPHEMERIS_TYPE = 0
CLASSIFICATION_TYPE = U
NORAD_CAT_ID   = 87163
ELEMENT_SET_NO = 999
REV_AT_EPOCH   = 57189
BSTAR          = .70744E-3
MEAN_MOTION_DOT = .225E-4
MEAN_MOTION_DDOT = 0

CCSDS_OMM_VERS = 2.0
CREATION_DATE  = 
ORIGINATOR     = 

OBJECT_NAME    = UNKNOWN
OBJECT_ID      = 
CENTER_NAME    = EARTH
REF_FRAME      = TEME
TIME_SYSTEM    = UTC
MEAN_ELEMENT_THEORY = SGP/SGP4

EPOCH          = 2025-11-01T16:19:20.099136
MEAN_MOTION    = 14.57823259
ECCENTRICITY   = .0097087
INCLINATION    = 65.2025
RA_OF_ASC_NODE = 86.9002
ARG_OF_PERICENTER = 74.7691
MEAN_ANOMALY   = 286.4118

EPHEMERIS_TYPE = 0
CLASSIFICATION_TYPE = U
NORAD_CAT_ID   = 87164
ELEMENT_SET_NO = 999
REV_AT_EPOCH   = 62978
BSTAR          = .98672E-3
MEAN_MOTION_DOT = .4712E-4
MEAN_MOTION_DDOT = 0

CCSDS_OMM_VERS = 2.0
CREATION_DATE  = 
ORIGINATOR     = 

OBJECT_NAME    = UNKNOWN
OBJECT_ID      = 
CENTER_NAME    = EARTH
REF_FRAME      = TEME
TIME_SYSTEM    = UTC
MEAN_ELEMENT_THEORY = SGP/SGP4

EPOCH          = 2025-10-30T10:41:05.419104
MEAN_MOTION    = 14.29017347
ECCENTRICITY   = .0046756
INCLINATION    = 98.5391
RA_OF_ASC_NODE = 165.1402
ARG_OF_PERICENTER = 90.2333
MEAN_ANOMALY   = 270.4206

EPHEMERIS_TYPE = 0
CLASSIFICATION_TYPE = U
NORAD_CAT_ID   = 87204
ELEMENT_SET_NO = 999
REV_AT_EPOCH   = 61925
BSTAR          = .1174E-2
MEAN_MOTION_DOT = .2964E-4
MEAN_MOTION_DDOT = 0

CCSDS_OMM_VERS = 2.0
CREATION_DATE  = 
ORIGINATOR     = 

OBJECT_NAME    = UNKNOWN
OBJECT_ID      = 
CENTER_NAME    = EARTH
REF_FRAME      = TEME
TIME_SYSTEM    = UTC
MEAN_ELEMENT_THEORY = SGP/SGP4

EPOCH          = 2025-10-26T06:26:59.557632
MEAN_MOTION    = 14.45961593
ECCENTRICITY   = .0052991
INCLINATION    = 99.0861
RA_OF_ASC_NODE = 295.7046
ARG_OF_PERICENTER = 301.4501
MEAN_ANOMALY   = 72.4478

EPHEMERIS_TYPE = 0
CLASSIFICATION_TYPE = U
NORAD_CAT_ID   = 87211
ELEMENT_SET_NO = 999
REV_AT_EPOCH   = 70091
BSTAR          = .13414E-2
MEAN_MOTION_DOT = .4809E-4
MEAN_MOTION_DDOT = 0

CCSDS_OMM_VERS = 2.0
CREATION_DATE  = 
ORIGINATOR     = 

OBJECT_NAME    = UNKNOWN
OBJECT_ID      = 
CENTER_NAME    = EARTH
REF_FRAME      = TEME
TIME_SYSTEM    = UTC
MEAN_ELEMENT_THEORY = SGP/SGP4

EPOCH          = 2025-10-31T18:00:43.922304
MEAN_MOTION    = 13.83954344
ECCENTRICITY   = .0074521
INCLINATION    = 100.3285
RA_OF_ASC_NODE = 299.3027
ARG_OF_PERICENTER = 359.6744
MEAN_ANOMALY   = 0.4347

EPHEMERIS_TYPE = 0
CLASSIFICATION_TYPE = U
NORAD_CAT_ID   = 87214
ELEMENT_SET_NO = 999
REV_AT_EPOCH   = 59443
BSTAR          = .21032E-2
MEAN_MOTION_DOT = .2335E-4
MEAN_MOTION_DDOT = 0

CCSDS_OMM_VERS = 2.0
CREATION_DATE  = 
ORIGINATOR     = 

OBJECT_NAME    = UNKNOWN
OBJECT_ID      = 
CENTER_NAME    = EARTH
REF_FRAME      = TEME
TIME_SYSTEM    = UTC
MEAN_ELEMENT_THEORY = SGP/SGP4

EPOCH          = 2025-10-30T15:14:19.959072
MEAN_MOTION    = 13.91698471
ECCENTRICITY   = .0103631
INCLINATION    = 99.2629
RA_OF_ASC_NODE = 359.2011
ARG_OF_PERICENTER = 41.3719
MEAN_ANOMALY   = 110.3821

EPHEMERIS_TYPE = 0
CLASSIFICATION_TYPE = U
NORAD_CAT_ID   = 87237
ELEMENT_SET_NO = 999
REV_AT_EPOCH   = 60576
BSTAR          = .38425E-3
MEAN_MOTION_DOT = .465E-5
MEAN_MOTION_DDOT = 0

CCSDS_OMM_VERS = 2.0
CREATION_DATE  = 
ORIGINATOR     = 

OBJECT_NAME    = UNKNOWN
OBJECT_ID      = 
CENTER_NAME    = EARTH
REF_FRAME      = TEME
TIME_SYSTEM    = UTC
MEAN_ELEMENT_THEORY = SGP/SGP4

EPOCH          = 2025-10-31T18:09:36.628416
MEAN_MOTION    = 14.50674496
ECCENTRICITY   = .0019886
INCLINATION    = 82.8721
RA_OF_ASC_NODE = 118.4866
ARG_OF_PERICENTER = 175.8971
MEAN_ANOMALY   = 184.2394

EPHEMERIS_TYPE = 0
CLASSIFICATION_TYPE = U
NORAD_CAT_ID   = 87239
ELEMENT_SET_NO = 999
REV_AT_EPOCH   = 62178
BSTAR          = .38089E-2
MEAN_MOTION_DOT = .15034E-3
MEAN_MOTION_DDOT = 0

CCSDS_OMM_VERS = 2.0
CREATION_DATE  = 
ORIGINATOR     = 

OBJECT_NAME    = UNKNOWN
OBJECT_ID      = 
CENTER_NAME    = EARTH
REF_FRAME      = TEME
TIME_SYSTEM    = UTC
MEAN_ELEMENT_THEORY = SGP/SGP4

EPOCH          = 2025-11-01T14:11:51.436320
MEAN_MOTION    = 14.15001289
ECCENTRICITY   = .0436962
INCLINATION    = 65.6407
RA_OF_ASC_NODE = 157.8134
ARG_OF_PERICENTER = 141.7191
MEAN_ANOMALY   = 254.4334

EPHEMERIS_TYPE = 0
CLASSIFICATION_TYPE = U
NORAD_CAT_ID   = 87245
ELEMENT_SET_NO = 999
REV_AT_EPOCH   = 60838
BSTAR          = .12122E-2
MEAN_MOTION_DOT = .5879E-4
MEAN_MOTION_DDOT = 0

CCSDS_OMM_VERS = 2.0
CREATION_DATE  = 
ORIGINATOR     = 

OBJECT_NAME    = UNKNOWN
OBJECT_ID      = 
CENTER_NAME    = EARTH
REF_FRAME      = TEME
TIME_SYSTEM    = UTC
MEAN_ELEMENT_THEORY = SGP/SGP4

EPOCH          = 2025-11-01T12:42:24.913728
MEAN_MOTION    = 14.20924662
ECCENTRICITY   = .0421254
INCLINATION    = 65.7567
RA_OF_ASC_NODE = 347.0012
ARG_OF_PERICENTER = 95.4914
MEAN_ANOMALY   = 269.4362

EPHEMERIS_TYPE = 0
CLASSIFICATION_TYPE = U
NORAD_CAT_ID   = 87271
ELEMENT_SET_NO = 999
REV_AT_EPOCH   = 60651
BSTAR          = .94834E-3
MEAN_MOTION_DOT = .4991E-4
MEAN_MOTION_DDOT = 0

CCSDS_OMM_VERS = 2.0
CREATION_DATE  = 
ORIGINATOR     = 

OBJECT_NAME    = UNKNOWN
OBJECT_ID      = 
CENTER_NAME    = EARTH
REF_FRAME      = TEME
TIME_SYSTEM    = UTC
MEAN_ELEMENT_THEORY = SGP/SGP4

EPOCH          = 2025-10-31T09:43:57.281376
MEAN_MOTION    = 13.48498850
ECCENTRICITY   = .0131391
INCLINATION    = 64.6167
RA_OF_ASC_NODE = 340.0758
ARG_OF_PERICENTER = 268.5699
MEAN_ANOMALY   = 90.0285

EPHEMERIS_TYPE = 0
CLASSIFICATION_TYPE = U
NORAD_CAT_ID   = 87280
ELEMENT_SET_NO = 999
REV_AT_EPOCH   = 52814
BSTAR          = .10682E-2
MEAN_MOTION_DOT = .617E-5
MEAN_MOTION_DDOT = 0

CCSDS_OMM_VERS = 2.0
CREATION_DATE  = 
ORIGINATOR     = 

OBJECT_NAME    = UNKNOWN
OBJECT_ID      = 
CENTER_NAME    = EARTH
REF_FRAME      = TEME
TIME_SYSTEM    = UTC
MEAN_ELEMENT_THEORY = SGP/SGP4

EPOCH          = 2025-11-01T14:37:18.395616
MEAN_MOTION    = 14.17044933
ECCENTRICITY   = .0425483
INCLINATION    = 65.8974
RA_OF_ASC_NODE = 254.4801
ARG_OF_PERICENTER = 22.0299
MEAN_ANOMALY   = 339.8478

EPHEMERIS_TYPE = 0
CLASSIFICATION_TYPE = U
NORAD_CAT_ID   = 87293
ELEMENT_SET_NO = 999
REV_AT_EPOCH   = 60816
BSTAR          = .28935E-2
MEAN_MOTION_DOT = .1427E-3
MEAN_MOTION_DDOT = 0

