UNKNOWN                 
1 87159U          25300.62321296  .00001315  00000+0  15332-2 0  9996
2 87159  90.3475  67.7364 0104663  34.9602 325.8371 13.65910476550390
UNKNOWN                 
1 87163U          25305.49802746  .00002250  00000+0  70744-3 0  9993
2 87163  65.6024 337.9908 0642247  83.1741 284.1912 13.63588240571895
UNKNOWN                 
1 87164U          25305.68009374  .00004712  00000+0  98672-3 0  9996
2 87164  65.2025  86.9002 0097087  74.7691 286.4118 14.57823259629786
UNKNOWN                 
1 87204U          25303.44520161  .00002964  00000+0  11740-2 0  9992
2 87204  98.5391 165.1402 0046756  90.2333 270.4206 14.29017347619257
UNKNOWN                 
1 87211U          25299.26874488  .00004809  00000+0  13414-2 0  9998
2 87211  99.0861 295.7046 0052991 301.4501  72.4478 14.45961593700913
UNKNOWN                 
1 87214U          25304.75050836  .00002335  00000+0  21032-2 0  9992
2 87214 100.3285 299.3027 0074521 359.6744   0.4347 13.83954344594439
UNKNOWN                 
1 87237U          25303.63495323  .00000465  00000+0  38425-3 0  9994
2 87237  99.2629 359.2011 0103631  41.3719 110.3821 13.91698471605765
UNKNOWN                 
1 87239U          25304.75667394  .00015034  00000+0  38089-2 0  9992
2 87239  82.8721 118.4866 0019886 175.8971 184.2394 14.50674496621784
UNKNOWN                 
1 87245U          25305.59156755  .00005879  00000+0  12122-2 0  9992
2 87245  65.6407 157.8134 0436962 141.7191 254.4334 14.15001289608380
UNKNOWN                 
1 87271U          25305.52945502  .00004991  00000+0  94834-3 0  9995
2 87271  65.7567 347.0012 0421254  95.4914 269.4362 14.20924662606516
UNKNOWN                 
1 87280U          25304.40552409  .00000617  00000+0  10682-2 0  9990
2 87280  64.6167 340.0758 0131391 268.5699  90.0285 13.48498850528141
UNKNOWN                 
1 87293U          25305.60924069  .00014270  00000+0  28935-2 0  9992
2 87293  65.8974 254.4801 0425483  22.0299 339.8478 14.17044933608163
